STARLINK-1241           
1 45195U 20012T   22315.78150310  .00039551  00000+0  19898-2 0  9996
2 45195  53.0496  88.0856 0000212 292.9993  67.0978 15.16866909151988
STARLINK-1244           
1 45196U 20012U   22316.12602597  .00014109  00000+0  96373-3 0  9991
2 45196  53.0542  94.5245 0001341  80.8169 279.2972 15.06417729151025
STARLINK-1269           
1 45197U 20012V   22315.78323432  .00002745  00000+0  20315-3 0  9997
2 45197  53.0548  96.0595 0001165  80.9650 279.1471 15.06390597151843
STARLINK-1154           
1 45198U 20012W   22315.64132520  .00014322  00000+0  97819-3 0  9996
2 45198  53.0562  76.7046 0001051  83.8380 276.2729 15.06408859152073
STARLINK-1197           
1 45199U 20012X   22315.57866922  .00001202  00000+0  99571-4 0  9990
2 45199  53.0568  76.9850 0001267 101.3039 258.8093 15.06393480152120
STARLINK-1199           
1 45201U 20012Z   22316.05046874  .00014812  00000+0  10108-2 0  9992
2 45201  53.0557  74.8555 0001275  96.1857 263.9277 15.06415270151255
STARLINK-1203           
1 45202U 20012AA  22315.62763094  .00061859  00000+0  25541-2 0  9995
2 45202  52.9674  68.9262 0002628 314.5789  45.4991 15.23457589152207
STARLINK-1206           
1 45204U 20012AC  22315.67817118  .00002552  00000+0  19021-3 0  9991
2 45204  53.0554  76.5346 0001174  62.8159 297.2949 15.06392709152152
STARLINK-1208           
1 45205U 20012AD  22316.03203512  .00002605  00000+0  19371-3 0  9997
2 45205  53.0570  74.9314 0001444  97.9011 262.2142 15.06398823151265
STARLINK-1209           
1 45206U 20012AE  22315.66160902  .00007347  00000+0  51181-3 0  9994
2 45206  53.0566  56.5927 0001349  94.0811 266.0332 15.06386914151460
STARLINK-1210           
1 45207U 20012AF  22316.05415234  .00006447  00000+0  45129-3 0  9995
2 45207  53.0562  74.8399 0001496  88.7499 271.3662 15.06403936151254
STARLINK-1211           
1 45208U 20012AG  22316.15884077  .00017534  00000+0  12185-2 0  9996
2 45208  53.0007  74.3746 0001276 114.1195 245.9927 15.05613195151219
STARLINK-1219           
1 45210U 20012AJ  22315.72610302  .00015764  00000+0  10747-2 0  9994
2 45210  53.0541  76.3232 0001301  93.4328 266.6810 15.06405156152032
STARLINK-1231           
1 45212U 20012AL  22315.62658127  .00000446  00000+0  48836-4 0  9995
2 45212  53.0553  76.7717 0001332  91.2977 268.8165 15.06384011152087
STARLINK-1232           
1 45213U 20012AM  22315.67717133  .00015018  00000+0  34115-3 0  9999
2 45213  53.0591   9.6386 0003144   3.0643 357.0381 15.43257254153093
STARLINK-1233           
1 45214U 20012AN  22315.79887434  .00005230  00000+0  36976-3 0  9997
2 45214  53.0554  75.9791 0001319  88.3189 271.7951 15.06396462151213
STARLINK-1245           
1 45215U 20012AP  22315.72979128  .00012914  00000+0  88431-3 0  9993
2 45215  53.0553  76.3060 0001498 101.4719 258.6438 15.06396722152080
STARLINK-1271           
1 45217U 20012AR  22315.63764654  .00003009  00000+0  22095-3 0  9990
2 45217  53.0544  76.7181 0001400  95.4827 264.6322 15.06380563152136
STARLINK-1187           
1 45219U 20012AT  22315.70136578  .00017148  00000+0  11586-2 0  9999
2 45219  53.0543  56.4201 0001484  95.9754 264.1404 15.06679300152430
STARLINK-1189           
1 45221U 20012AV  22315.77218717 -.00000470  00000+0 -12678-4 0  9992
2 45221  53.0553  56.1107 0001135  88.9517 271.1602 15.06395384151498
STARLINK-1191           
1 45222U 20012AW  22315.64685817  .00008492  00000+0  58826-3 0  9992
2 45222  53.0574  56.6709 0001677  84.1739 275.9441 15.06403488152411
STARLINK-1212           
1 45223U 20012AX  22315.99975890  .00005062  00000+0  35850-3 0  9996
2 45223  53.0545  55.0644 0001205  90.7164 269.3963 15.06394844151536
STARLINK-1215           
1 45225U 20012AZ  22315.75374737  .00009502  00000+0  65583-3 0  9994
2 45225  53.0556  56.1873 0001246  95.3927 264.7204 15.06403909151494
STARLINK-1217           
1 45226U 20012BA  22315.56208837  .00019120  00000+0  12989-2 0  9999
2 45226  53.0558  57.0610 0001361 100.4126 259.7017 15.06402598151436
STARLINK-1221           
1 45227U 20012BB  22315.98226990  .00008240  00000+0  57129-3 0  9993
2 45227  53.0552  55.1771 0001315  92.8628 267.2512 15.06407346151494
STARLINK-1222           
1 45228U 20012BC  22315.65423101  .00017451  00000+0  11872-2 0  9999
2 45228  53.0562  56.6440 0001294  75.9523 284.1610 15.06411540151473
STARLINK-1226           
1 45229U 20012BD  22316.01545270  .00013561  00000+0  92717-3 0  9999
2 45229  53.0550  55.0285 0001309  79.1170 280.9966 15.06415992151532
STARLINK-1227           
1 45230U 20012BE  22316.07810562  .00004118  00000+0  29530-3 0  9997
2 45230  53.0571  54.7384 0001365  87.0742 273.0403 15.06389478151547
STARLINK-1235           
1 45232U 20012BG  22316.08820257  .00002705  00000+0  20039-3 0  9997
2 45232  53.0567  54.6849 0001167  81.3604 278.7517 15.06399424151521
STARLINK-1238           
1 45233U 20012BH  22315.60446966  .00002623  00000+0  19500-3 0  9996
2 45233  53.0554  76.8579 0001433  76.8610 283.2539 15.06385750152114
STARLINK-1243           
1 45234U 20012BJ  22316.10759584  .00003053  00000+0  22374-3 0  9997
2 45234  53.0547  94.6135 0001325 114.3112 245.8016 15.06405536151015
STARLINK-1246           
1 45235U 20012BK  22316.15920129  .00001628  00000+0  12821-3 0  9990
2 45235  53.0557  94.3684 0001667  68.5491 291.5676 15.06387255151020
STARLINK-1247           
1 45236U 20012BL  22315.80903285  .00011674  00000+0  80105-3 0  9998
2 45236  53.0551  55.9485 0001599  69.6352 290.4809 15.06412178151501
STARLINK-1270           
1 45237U 20012BM  22315.69845849  .00005699  00000+0  40128-3 0  9998
2 45237  53.0544  56.4291 0001340  76.4288 283.6850 15.06392896152429
JCSAT-17                
1 45245U 20013A   22315.94354894 -.00000311  00000+0  00000+0 0  9999
2 45245   6.0209 345.9587 0003468 249.8909 290.9116  1.00272110 10072
GEO-KOMPSAT-2B          
1 45246U 20013B   22314.65723700 -.00000335  00000+0  00000+0 0  9999
2 45246   0.0172 291.7873 0002397 320.7148 162.1758  1.00270253 10096
XJS C                   
1 45249U 20014A   22316.15563158  .00036964  00000+0  81556-3 0  9994
2 45249  35.0129 214.3386 0007387 343.1439  16.9036 15.42842132152842
XJS D                   
1 45250U 20014B   22316.18174323  .00034706  00000+0  81504-3 0  9996
2 45250  35.0125 216.5349 0010069 313.0464  46.9413 15.40966289152826
XJS E                   
1 45251U 20014C   22316.18070545  .00027276  00000+0  65582-3 0  9990
2 45251  35.0134 216.5458 0005649 336.4635  23.5826 15.40333945152786
XJS F                   
1 45253U 20014E   22316.13932445  .00024048  00000+0  58702-3 0  9993
2 45253  35.0117 217.0881 0006590 336.7447  23.2975 15.39889570152774
MERIDIAN 9              
1 45254U 20015A   22315.19072956  .00000173  00000+0  00000+0 0  9999
2 45254  63.4079 107.6711 6889169 293.0370 161.4740  2.00603028 19953
BEIDOU-3 G2             
1 45344U 20017A   22315.86299491 -.00000134  00000+0  00000+0 0  9998
2 45344   2.0025 359.7827 0002842 193.0197 248.9289  1.00272069 10109
COSMOS 2545 [GLONASS-M] 
1 45358U 20018A   22315.53288277 -.00000075  00000+0  00000+0 0  9992
2 45358  64.9049 358.2100 0011081 243.3044 298.2269  2.13102646 20666
STARLINK-1279           
1 45360U 20019A   22315.92238157  .00001983  00000+0  15205-3 0  9996
2 45360  53.0513 185.4395 0001721  57.2103 302.9051 15.06388209147195
STARLINK-1301           
1 45361U 20019B   22316.04308911  .00007771  00000+0  53985-3 0  9995
2 45361  53.0520 194.8990 0001516  69.7776 290.3376 15.06411858147080
STARLINK-1306           
1 45362U 20019C   22316.15552915  .00010411  00000+0  71680-3 0  9990
2 45362  53.0546 214.3978 0001505  64.3518 295.7627 15.06400886146824
STARLINK-1313           
1 45364U 20019E   22315.85235269  .00007877  00000+0  54723-3 0  9999
2 45364  53.0525 185.7498 0001684  65.7200 294.3965 15.06392547147186
STARLINK-1317           
1 45365U 20019F   22315.90325337  .00019978  00000+0  13176-2 0  9993
2 45365  52.9976 195.1601 0002484 114.4658 245.6590 15.07471747147009
STARLINK-1262           
1 45366U 20019G   22315.87539395  .00009663  00000+0  66670-3 0  9999
2 45366  53.0548 215.6429 0002067  60.0298 300.0896 15.06399254146786
STARLINK-1273           
1 45367U 20019H   22316.09653743  .00008259  00000+0  57252-3 0  9995
2 45367  53.0546 214.6482 0001528  57.9709 302.1428 15.06409888146819
STARLINK-1276           
1 45368U 20019J   22315.86801110  .00005062  00000+0  35863-3 0  9996
2 45368  53.0543 215.6879 0002132  39.9196 320.1949 15.06385222146789
STARLINK-1277           
1 45369U 20019K   22315.86706343  .00015706  00000+0  10706-2 0  9993
2 45369  53.0541 215.6787 0001396  74.1748 285.9395 15.06412939146780
STARLINK-1281           
1 45370U 20019L   22316.12233213  .00002336  00000+0  17569-3 0  9996
2 45370  53.0548 214.5462 0001745  59.4933 300.6228 15.06396818146795
STARLINK-1287           
1 45371U 20019M   22316.21724497  .00008231  00000+0  57087-3 0  9995
2 45371  53.0535 214.1056 0001837  61.3650 298.7523 15.06398892146831
STARLINK-1288           
1 45372U 20019N   22316.16659208  .00010142  00000+0  69890-3 0  9996
2 45372  53.0526 214.3245 0001768  54.9383 305.1772 15.06391990146828
STARLINK-1295           
1 45373U 20019P   22316.14815248  .00012752  00000+0  87318-3 0  9997
2 45373  53.0544 214.4163 0001532  63.7455 296.3691 15.06410595146820
STARLINK-1300           
1 45374U 20019Q   22315.87906032  .00002472  00000+0  18481-3 0  9992
2 45374  53.0550 215.6297 0001486  64.0491 296.0651 15.06398846146783
STARLINK-1302           
1 45375U 20019R   22316.09285752  .00001487  00000+0  11874-3 0  9991
2 45375  53.0553 214.6591 0001949  57.9833 302.1345 15.06401859146810
STARLINK-1304           
1 45376U 20019S   22316.11126165  .00003272  00000+0  23836-3 0  9992
2 45376  53.0530 214.5756 0001754  57.4921 302.6237 15.06414571146815
